start=new Date('2023-01-10T00:00:00.000Z').valueOf();
sats=[{"TLE_LINE1":"1 45078U 20006AL  23009.16667003  .00002125  00000-0  16153-3 0  9994","PERIOD":"95.592","CLASSIFICATION_TYPE":"U","NORAD_CAT_ID":"45078","EPOCH":"2023-01-09T04:00:00.290592","SEMIMAJOR_AXIS":"6925.353","EPHEMERIS_TYPE":"0","SITE":"AFETR","DECAY_DATE":null,"REV_AT_EPOCH":"16256","LAUNCH_DATE":"2020-01-29","ELEMENT_SET_NO":"999","MEAN_MOTION":"15.06398694","MEAN_MOTION_DOT":"0.00002125","MEAN_ELEMENT_THEORY":"SGP4","ARG_OF_PERICENTER":"38.0008","OBJECT_TYPE":"PAYLOAD","INCLINATION":"53.0566","OBJECT_ID":"2020-006AL","BSTAR":"0.00016153000000","GP_ID":"222540229","TLE_LINE2":"2 45078  53.0566  53.9729 0002192  38.0008 322.1136 15.06398694162568","RCS_SIZE":"LARGE","PERIAPSIS":"545.700","COUNTRY_CODE":"US","OBJECT_NAME":"STARLINK-1177","RA_OF_ASC_NODE":"53.9729","ECCENTRICITY":"0.00021920","TIME_SYSTEM":"UTC","FILE":"3737263","MEAN_MOTION_DDOT":"0.0000000000000","CENTER_NAME":"EARTH","REF_FRAME":"TEME","APOAPSIS":"548.736","MEAN_ANOMALY":"322.1136"},{"NORAD_CAT_ID":"45079","DECAY_DATE":null,"REV_AT_EPOCH":"16261","LAUNCH_DATE":"2020-01-29","EPHEMERIS_TYPE":"0","SEMIMAJOR_AXIS":"6925.358","EPOCH":"2023-01-09T11:24:29.580768","SITE":"AFETR","TLE_LINE1":"1 45079U 20006AM  23009.47534237  .00001304  00000-0  10645-3 0  9999","CLASSIFICATION_TYPE":"U","PERIOD":"95.592","OBJECT_TYPE":"PAYLOAD","INCLINATION":"53.0553","MEAN_MOTION_DOT":"0.00001304","MEAN_MOTION":"15.06396890","ELEMENT_SET_NO":"999","MEAN_ELEMENT_THEORY":"SGP4","ARG_OF_PERICENTER":"63.1142","RA_OF_ASC_NODE":"52.5767","COUNTRY_CODE":"US","OBJECT_NAME":"STARLINK-1149","TLE_LINE2":"2 45079  53.0553  52.5767 0001440  63.1142 296.9994 15.06396890162617","RCS_SIZE":"LARGE","PERIAPSIS":"546.226","OBJECT_ID":"2020-006AM","GP_ID":"222540479","BSTAR":"0.00010645000000","REF_FRAME":"TEME","APOAPSIS":"548.220","MEAN_ANOMALY":"296.9994","TIME_SYSTEM":"UTC","ECCENTRICITY":"0.00014400","MEAN_MOTION_DDOT":"0.0000000000000","CENTER_NAME":"EARTH","FILE":"3737263"},{"FILE":"3737263","MEAN_MOTION_DDOT":"0.0000000000000","CENTER_NAME":"EARTH","TIME_SYSTEM":"UTC","ECCENTRICITY":"0.00023930","REF_FRAME":"TEME","APOAPSIS":"548.852","MEAN_ANOMALY":"311.0821","BSTAR":"0.00032560000000","GP_ID":"222540730","OBJECT_ID":"2020-006AN","TLE_LINE2":"2 45080  53.0550  52.8481 0002393  49.0375 311.0821 15.06406180162613","RCS_SIZE":"LARGE","PERIAPSIS":"545.537","COUNTRY_CODE":"US","RA_OF_ASC_NODE":"52.8481","OBJECT_NAME":"STARLINK-1153","MEAN_ELEMENT_THEORY":"SGP4","ARG_OF_PERICENTER":"49.0375","ELEMENT_SET_NO":"999","MEAN_MOTION_DOT":"0.00004572","MEAN_MOTION":"15.06406180","INCLINATION":"53.0550","OBJECT_TYPE":"PAYLOAD","PERIOD":"95.592","CLASSIFICATION_TYPE":"U","TLE_LINE1":"1 45080U 20006AN  23009.41730587  .00004572  00000-0  32560-3 0  9991","SEMIMAJOR_AXIS":"6925.330","EPHEMERIS_TYPE":"0","EPOCH":"2023-01-09T10:00:55.227168","SITE":"AFETR","REV_AT_EPOCH":"16261","DECAY_DATE":null,"LAUNCH_DATE":"2020-01-29","NORAD_CAT_ID":"45080"},{"OBJECT_ID":"2020-006AP","BSTAR":"0.00011458000000","GP_ID":"222541481","TLE_LINE2":"2 45081  53.0541  52.3308 0002361  41.6856 318.4313 15.06400642162630","RCS_SIZE":"LARGE","PERIAPSIS":"545.577","OBJECT_NAME":"STARLINK-1151","COUNTRY_CODE":"US","RA_OF_ASC_NODE":"52.3308","ECCENTRICITY":"0.00023610","TIME_SYSTEM":"UTC","FILE":"3737263","CENTER_NAME":"EARTH","MEAN_MOTION_DDOT":"0.0000000000000","MEAN_ANOMALY":"318.4313","APOAPSIS":"548.847","REF_FRAME":"TEME","TLE_LINE1":"1 45081U 20006AP  23009.52694191  .00001425  00000-0  11458-3 0  9991","PERIOD":"95.592","CLASSIFICATION_TYPE":"U","NORAD_CAT_ID":"45081","SITE":"AFETR","EPHEMERIS_TYPE":"0","SEMIMAJOR_AXIS":"6925.347","EPOCH":"2023-01-09T12:38:47.781024","DECAY_DATE":null,"REV_AT_EPOCH":"16263","LAUNCH_DATE":"2020-01-29","ELEMENT_SET_NO":"999","MEAN_MOTION_DOT":"0.00001425","MEAN_MOTION":"15.06400642","ARG_OF_PERICENTER":"41.6856","MEAN_ELEMENT_THEORY":"SGP4","OBJECT_TYPE":"PAYLOAD","INCLINATION":"53.0541"},{"EPOCH":"2023-01-09T09:11:47.166720","SEMIMAJOR_AXIS":"6925.313","EPHEMERIS_TYPE":"0","SITE":"AFETR","DECAY_DATE":null,"LAUNCH_DATE":"2020-01-29","REV_AT_EPOCH":"16260","NORAD_CAT_ID":"45082","PERIOD":"95.591","CLASSIFICATION_TYPE":"U","TLE_LINE1":"1 45082U 20006AQ  23009.38318480  .00008388  00000-0  58113-3 0  9994","INCLINATION":"53.0537","OBJECT_TYPE":"PAYLOAD","MEAN_ELEMENT_THEORY":"SGP4","ARG_OF_PERICENTER":"42.8224","ELEMENT_SET_NO":"999","MEAN_MOTION_DOT":"0.00008388","MEAN_MOTION":"15.06411460","TLE_LINE2":"2 45082  53.0537  52.9862 0002208  42.8224 317.2937 15.06411460162605","PERIAPSIS":"545.649","RCS_SIZE":"LARGE","COUNTRY_CODE":"US","RA_OF_ASC_NODE":"52.9862","OBJECT_NAME":"STARLINK-1160","BSTAR":"0.00058113000000","GP_ID":"222539730","OBJECT_ID":"2020-006AQ","APOAPSIS":"548.708","REF_FRAME":"TEME","MEAN_ANOMALY":"317.2937","FILE":"3737263","MEAN_MOTION_DDOT":"0.0000000000000","CENTER_NAME":"EARTH","ECCENTRICITY":"0.00022080","TIME_SYSTEM":"UTC"},{"TLE_LINE1":"1 45083U 20006AR  23009.48180950  .00006178  00000-0  43315-3 0  9998","CLASSIFICATION_TYPE":"U","PERIOD":"95.592","NORAD_CAT_ID":"45083","REV_AT_EPOCH":"16234","DECAY_DATE":null,"LAUNCH_DATE":"2020-01-29","SEMIMAJOR_AXIS":"6925.318","EPHEMERIS_TYPE":"0","EPOCH":"2023-01-09T11:33:48.340800","SITE":"AFETR","MEAN_MOTION_DOT":"0.00006178","MEAN_MOTION":"15.06409917","ELEMENT_SET_NO":"999","MEAN_ELEMENT_THEORY":"SGP4","ARG_OF_PERICENTER":"39.9733","OBJECT_TYPE":"PAYLOAD","INCLINATION":"53.0532","OBJECT_ID":"2020-006AR","GP_ID":"222539979","BSTAR":"0.00043315000000","OBJECT_NAME":"STARLINK-1190","COUNTRY_CODE":"US","RA_OF_ASC_NODE":"72.5446","PERIAPSIS":"545.844","TLE_LINE2":"2 45083  53.0532  72.5446 0001934  39.9733 320.1398 15.06409917162343","RCS_SIZE":"LARGE","ECCENTRICITY":"0.00019340","TIME_SYSTEM":"UTC","MEAN_MOTION_DDOT":"0.0000000000000","CENTER_NAME":"EARTH","FILE":"3737263","APOAPSIS":"548.523","REF_FRAME":"TEME","MEAN_ANOMALY":"320.1398"},{"OBJECT_ID":"2020-006AS","GP_ID":"222541231","BSTAR":"0.00029254000000","RA_OF_ASC_NODE":"32.6422","COUNTRY_CODE":"US","OBJECT_NAME":"STARLINK-1173","TLE_LINE2":"2 45084  53.0509  32.6422 0001738  84.3363 275.7824 15.06409444162900","RCS_SIZE":"LARGE","PERIAPSIS":"545.981","ECCENTRICITY":"0.00017380","TIME_SYSTEM":"UTC","CENTER_NAME":"EARTH","MEAN_MOTION_DDOT":"0.0000000000000","FILE":"3737263","MEAN_ANOMALY":"275.7824","REF_FRAME":"TEME","APOAPSIS":"548.388","TLE_LINE1":"1 45084U 20006AS  23009.46338855  .00004080  00000-0  29254-3 0  9992","CLASSIFICATION_TYPE":"U","PERIOD":"95.592","NORAD_CAT_ID":"45084","REV_AT_EPOCH":"16290","DECAY_DATE":null,"LAUNCH_DATE":"2020-01-29","SITE":"AFETR","SEMIMAJOR_AXIS":"6925.320","EPOCH":"2023-01-09T11:07:16.770720","EPHEMERIS_TYPE":"0","MEAN_MOTION_DOT":"0.00004080","MEAN_MOTION":"15.06409444","ELEMENT_SET_NO":"999","ARG_OF_PERICENTER":"84.3363","MEAN_ELEMENT_THEORY":"SGP4","OBJECT_TYPE":"PAYLOAD","INCLINATION":"53.0509"},{"INCLINATION":"53.0561","OBJECT_TYPE":"PAYLOAD","MEAN_ELEMENT_THEORY":"SGP4","ARG_OF_PERICENTER":"60.7821","ELEMENT_SET_NO":"999","MEAN_MOTION":"15.06399067","MEAN_MOTION_DOT":"0.00001775","EPOCH":"2023-01-09T11:01:57.140832","SEMIMAJOR_AXIS":"6925.351","EPHEMERIS_TYPE":"0","SITE":"AFETR","LAUNCH_DATE":"2020-01-29","DECAY_DATE":null,"REV_AT_EPOCH":"16290","NORAD_CAT_ID":"45085","PERIOD":"95.592","CLASSIFICATION_TYPE":"U","TLE_LINE1":"1 45085U 20006AT  23009.45968913  .00001775  00000-0  13805-3 0  9999","APOAPSIS":"548.358","REF_FRAME":"TEME","MEAN_ANOMALY":"299.3332","FILE":"3737263","MEAN_MOTION_DDOT":"0.0000000000000","CENTER_NAME":"EARTH","ECCENTRICITY":"0.00016490","TIME_SYSTEM":"UTC","TLE_LINE2":"2 45085  53.0561  32.6575 0001649  60.7821 299.3332 15.06399067162901","PERIAPSIS":"546.074","RCS_SIZE":"LARGE","RA_OF_ASC_NODE":"32.6575","COUNTRY_CODE":"US","OBJECT_NAME":"STARLINK-1179","BSTAR":"0.00013805000000","GP_ID":"222540981","OBJECT_ID":"2020-006AT"},{"GP_ID":"222540230","BSTAR":"0.00225430000000","OBJECT_ID":"2020-006AU","COUNTRY_CODE":"US","RA_OF_ASC_NODE":"1.2171","OBJECT_NAME":"STARLINK-1181","TLE_LINE2":"2 45086  52.9806   1.2171 0002642  22.7976 337.3139 15.29830075163193","PERIAPSIS":"474.511","RCS_SIZE":"LARGE","MEAN_MOTION_DDOT":"0.0000000000000","CENTER_NAME":"EARTH","FILE":"3737263","ECCENTRICITY":"0.00026420","TIME_SYSTEM":"UTC","REF_FRAME":"TEME","APOAPSIS":"478.133","MEAN_ANOMALY":"337.3139","CLASSIFICATION_TYPE":"U","PERIOD":"94.128","TLE_LINE1":"1 45086U 20006AU  23009.25079708  .00066251  00000-0  22543-2 0  9991","REV_AT_EPOCH":"16319","DECAY_DATE":null,"LAUNCH_DATE":"2020-01-29","SEMIMAJOR_AXIS":"6854.457","EPHEMERIS_TYPE":"0","EPOCH":"2023-01-09T06:01:08.867712","SITE":"AFETR","NORAD_CAT_ID":"45086","MEAN_ELEMENT_THEORY":"SGP4","ARG_OF_PERICENTER":"22.7976","MEAN_MOTION_DOT":"0.00066251","MEAN_MOTION":"15.29830075","ELEMENT_SET_NO":"999","INCLINATION":"52.9806","OBJECT_TYPE":"PAYLOAD"},{"BSTAR":"0.00046016000000","GP_ID":"222540480","OBJECT_ID":"2020-006AV","TLE_LINE2":"2 45087  53.0526  32.7200 0002233  68.5838 291.5389 15.06405374162909","RCS_SIZE":"LARGE","PERIAPSIS":"545.651","COUNTRY_CODE":"US","RA_OF_ASC_NODE":"32.7200","OBJECT_NAME":"STARLINK-1185","FILE":"3737263","MEAN_MOTION_DDOT":"0.0000000000000","CENTER_NAME":"EARTH","TIME_SYSTEM":"UTC","ECCENTRICITY":"0.00022330","REF_FRAME":"TEME","APOAPSIS":"548.744","MEAN_ANOMALY":"291.5389","PERIOD":"95.592","CLASSIFICATION_TYPE":"U","TLE_LINE1":"1 45087U 20006AV  23009.44496339  .00006580  00000-0  46016-3 0  9997","SEMIMAJOR_AXIS":"6925.332","EPOCH":"2023-01-09T10:40:44.836896","EPHEMERIS_TYPE":"0","SITE":"AFETR","DECAY_DATE":null,"LAUNCH_DATE":"2020-01-29","REV_AT_EPOCH":"16290","NORAD_CAT_ID":"45087","MEAN_ELEMENT_THEORY":"SGP4","ARG_OF_PERICENTER":"68.5838","ELEMENT_SET_NO":"999","MEAN_MOTION":"15.06405374","MEAN_MOTION_DOT":"0.00006580","INCLINATION":"53.0526","OBJECT_TYPE":"PAYLOAD"}];
